[
  {
    "OBJECT_NAME": "STARLINK-33741",
    "OBJECT_ID": "2025-063C",
    "EPOCH": "2026-06-11T18:45:44.387000",
    "MEAN_MOTION": 15.34401022,
    "ECCENTRICITY": 0.0001324,
    "INCLINATION": 53.1594,
    "RA_OF_ASC_NODE": 332.7027,
    "ARG_OF_PERICENTER": 129.803,
    "MEAN_ANOMALY": 230.309,
    "EPHEMERIS_TYPE": 0,
    "CLASSIFICATION_TYPE": "U",
    "NORAD_CAT_ID": 63365,
    "ELEMENT_SET_NO": 999,
    "REV_AT_EPOCH": 6920,
    "BSTAR": 0.0007025,
    "MEAN_MOTION_DOT": 0.00023434,
    "MEAN_MOTION_DDOT": 0
  }
]
