STARLINK-33741          
1 63365U 25063C   26162.78176374  .00023434  00000+0  70250-3 0  9991
2 63365  53.1594 332.7027 0001324 129.8030 230.3090 15.34401022 69205
